[{"OBJECT_NAME":"CHUANGXIN 1 (CX-1)","OBJECT_ID":"2003-049B","EPOCH":"2026-03-09T23:37:11.328096","MEAN_MOTION":14.48529163,"ECCENTRICITY":0.00134088,"INCLINATION":98.5179,"RA_OF_ASC_NODE":327.2835,"ARG_OF_PERICENTER":121.0909,"MEAN_ANOMALY":239.1602,"EPHEMERIS_TYPE":0,"CLASSIFICATION_TYPE":"U","NORAD_CAT_ID":28058,"ELEMENT_SET_NO":999,"REV_AT_EPOCH":18191,"BSTAR":9.8543692e-5,"MEAN_MOTION_DOT":3.25e-6,"MEAN_MOTION_DDOT":0},{"OBJECT_NAME":"MINOTAUR R\/B","OBJECT_ID":"2000-004F","EPOCH":"2026-03-09T18:21:45.755424","MEAN_MOTION":14.3896638,"ECCENTRICITY":0.00318063,"INCLINATION":100.1984,"RA_OF_ASC_NODE":7.0436,"ARG_OF_PERICENTER":280.0847,"MEAN_ANOMALY":79.6747,"EPHEMERIS_TYPE":0,"CLASSIFICATION_TYPE":"U","NORAD_CAT_ID":26066,"ELEMENT_SET_NO":999,"REV_AT_EPOCH":36995,"BSTAR":0.00011903101,"MEAN_MOTION_DOT":3.1e-6,"MEAN_MOTION_DDOT":0}]
